EUTELSAT 21B            
1 38992U 12062B   25327.94625416  .00000150  00000+0  00000+0 0  9992
2 38992   0.0686 359.7838 0003305 255.1119 170.5276  1.00269895 47774
EUTELSAT 70B            
1 39020U 12069A   25328.02267192 -.00000023  00000+0  00000+0 0  9995
2 39020   0.0669  12.0364 0004463 224.9744 264.9007  1.00271859 47453
EUTELSAT 117 WEST A     
1 39122U 13012A   25327.91886734  .00000007  00000+0  00000+0 0  9994
2 39122   0.0132 345.6888 0002679 251.9298  39.5284  1.00271515 46370
EUTELSAT 7B             
1 39163U 13022A   25327.94339412  .00000068  00000+0  00000+0 0  9996
2 39163   0.0729  14.5573 0003686 300.2455  94.9910  1.00271282 45890
EXPRESS-AT1             
1 39612U 14010A   25328.16714593  .00000099  00000+0  00000+0 0  9999
2 39612   0.0147 279.0162 0000396 170.2751  90.2844  1.00269164 42768
EXPRESS-AT2             
1 39613U 14010B   25328.18378602 -.00000260  00000+0  00000+0 0  9990
2 39613   0.0142 278.2379 0000995  12.9013 338.3003  1.00273547 42441
EUTELSAT 3B             
1 39773U 14030A   25327.94261412  .00000041  00000+0  00000+0 0  9998
2 39773   0.0730  23.8268 0004423 198.5736 183.2332  1.00273487 42002
EUTELSAT 115 WEST B     
1 40425U 15010B   25327.91921399 -.00000005  00000+0  00000+0 0  9998
2 40425   0.0178 150.2187 0000351 147.5608 341.3860  1.00271410 39336
